ALOS (DAICHI)           
1 28931U 06002A   26093.89492224  .00002578  00000+0  43922-3 0  9995
2 28931  98.1261  49.7320 0001107 115.1518 244.9803 14.69893925 77187
H-2A R/B                
1 28932U 06002B   26094.00919672  .00018444  00000+0  90236-3 0  9990
2 28932  98.2464 243.2285 0052465 154.6510 205.7312 15.17034066 98278
RESURS-DK 1             
1 29228U 06021A   26094.25626491  .00004401  00000+0  25535-3 0  9999
2 29228  69.9333 170.8865 0001949  35.2722 324.8572 15.12909449 91394
CZ-4B R/B               
1 29507U 06046C   26094.13581307  .00009794  00000+0  48931-3 0  9994
2 29507  97.5536 138.9735 0033290 176.7207 183.4251 15.17184348 63907
CZ-2C R/B               
1 31114U 07010B   26094.29933505  .00000227  00000+0  12362-3 0  9992
2 31114  98.4006 206.2979 0058346 218.8344 140.8634 14.20256381983356
COSMO-SKYMED 1          
1 31598U 07023A   26094.27110876  .00006832  00000+0  60265-3 0  9991
2 31598  97.8869 285.5122 0001576  99.6691 260.4708 14.96737166 18735
COSMOS 2428             
1 31792U 07029A   26094.23329424 -.00000005  00000+0  23011-4 0  9996
2 31792  70.9423 149.7324 0009698 250.5460 109.4613 14.12949003967709
SL-16 R/B               
1 31793U 07029B   26094.30203590 -.00000097  00000+0 -25566-4 0  9999
2 31793  70.9739 118.5468 0002901 276.7049 161.7644 14.14843963968993
KORONAS-FOTON           
1 33504U 09003A   26094.17506736  .00022871  00000+0  49807-3 0  9993
2 33504  82.4286 249.3643 0011446  66.8292 293.4160 15.44071314949677
CZ-2C R/B               
1 37731U 11030B   26093.87524654  .00002507  00000+0  32107-3 0  9996
2 37731  97.8589  50.6430 0050925 268.4412 148.7353 14.81315501793824
H-2A R/B                
1 38341U 12025E   26093.89005147  .00004781  00000+0  43151-3 0  9999
2 38341  98.4773  62.9643 0043226 229.4419 130.3033 14.95351172751988
SHIJIAN-16 (SJ-16)      
1 39358U 13057A   26094.30403951  .00001312  00000+0  13058-3 0  9996
2 39358  74.9712 136.5979 0015351  46.0808 314.1645 14.92440255675324
SL-4 R/B                
1 39679U 14021B   26093.74841385  .00025560  00000+0  54336-3 0  9993
2 39679  51.6063 214.9494 0094520 194.4221 165.4063 15.40122549660137
ALOS-2                  
1 39766U 14029A   26094.28401352 -.00000095  00000+0 -57834-5 0  9990
2 39766  97.9197 192.5087 0001926  98.8518 261.2912 14.79450486640656
YAOGAN-29               
1 41038U 15069A   26094.29871035  .00001274  00000+0  16338-3 0  9990
2 41038  98.0101 122.7928 0000079 182.4683 177.6530 14.83026192559673
ASTRO-H (HITOMI)        
1 41337U 16012A   26093.61956448  .00004921  00000+0  28817-3 0  9995
2 41337  30.9990 195.6484 0009679 222.5414 137.4474 15.10171847556009
